[
    {
        "CCSDS_OMM_VERS": "3.0",
        "COMMENT": "GENERATED VIA SPACE-TRACK.ORG API",
        "CREATION_DATE": "2025-05-02T02:33:21",
        "ORIGINATOR": "18 SPCS",
        "OBJECT_NAME": "GALILEO 21 (2C7)",
        "OBJECT_ID": "2017-079C",
        "CENTER_NAME": "EARTH",
        "REF_FRAME": "TEME",
        "TIME_SYSTEM": "UTC",
        "MEAN_ELEMENT_THEORY": "SGP4",
        "EPOCH": "2025-05-01T03:50:47.506848",
        "MEAN_MOTION": "1.70474745",
        "ECCENTRICITY": "0.00018300",
        "INCLINATION": "55.2071",
        "RA_OF_ASC_NODE": "232.8416",
        "ARG_OF_PERICENTER": "304.9786",
        "MEAN_ANOMALY": "55.0079",
        "EPHEMERIS_TYPE": "0",
        "CLASSIFICATION_TYPE": "U",
        "NORAD_CAT_ID": "43057",
        "ELEMENT_SET_NO": "999",
        "REV_AT_EPOCH": "4596",
        "BSTAR": "0.00000000000000",
        "MEAN_MOTION_DOT": "-0.00000013",
        "MEAN_MOTION_DDOT": "0.0000000000000",
        "SEMIMAJOR_AXIS": "29600.234",
        "PERIOD": "844.700",
        "APOAPSIS": "23227.516",
        "PERIAPSIS": "23216.682",
        "OBJECT_TYPE": "PAYLOAD",
        "RCS_SIZE": "LARGE",
        "COUNTRY_CODE": "ESA",
        "LAUNCH_DATE": "2017-12-12",
        "SITE": "FRGUI",
        "DECAY_DATE": null,
        "FILE": "4716572",
        "GP_ID": "286610708",
        "TLE_LINE0": "0 GALILEO 21 (2C7)",
        "TLE_LINE1": "1 43057U 17079C   25121.16027207 -.00000013  00000-0  00000-0 0  9994",
        "TLE_LINE2": "2 43057  55.2071 232.8416 0001830 304.9786  55.0079  1.70474745 45965"
    }
]